STARLINK-31739          
1 59766U 24091P   26068.28389085 -.00001053  00000+0 -23421-4 0  9990
2 59766  53.1623  25.8419 0001211  82.7777 277.3361 15.30194066102981
TOMORROW-S2             
1 60485U 24149T   26068.75188364  .00008133  00000+0  27683-3 0  9990
2 60485  97.3857 150.0385 0001648 234.3331 125.7757 15.30674935 86869
